STARLINK-35063          
1 65528U 25200J   26071.20238556 -.00007776  00000+0 -53540-3 0  9990
2 65528  97.6038 142.3487 0001180  73.4955 286.6401 15.05641098 29516
STARLINK-35077          
1 65529U 25200K   26071.18023308  .00004060  00000+0  28541-3 0  9999
2 65529  97.6023 142.2220 0001116 111.7425 248.3921 15.05654463 29503
STARLINK-35152          
1 65530U 25200L   26071.16085009  .00005746  00000+0  40201-3 0  9994
2 65530  97.6015 142.2492 0000727 102.0828 258.0480 15.05660577 29505
STARLINK-35064          
1 65531U 25200M   26071.17192699  .00005296  00000+0  37095-3 0  9997
2 65531  97.6022 142.2340 0000977  98.1159 262.0178 15.05654765 29506
STARLINK-35170          
1 65532U 25200N   26071.21069802  .00007209  00000+0  50328-3 0  9992
2 65532  97.6045 142.3381 0000969  79.1546 280.9790 15.05655642 29513
STARLINK-35172          
1 65533U 25200P   26071.18852653 -.00007841  00000+0 -54000-3 0  9998
2 65533  97.6023 142.2105 0000731  73.0614 287.0693 15.05635202 29508
STARLINK-35125          
1 65534U 25200Q   26071.19684568  .00003734  00000+0  26282-3 0  9994
2 65534  97.6029 142.2013 0001848  85.9620 274.1818 15.05654675 29503
STARLINK-35133          
1 65535U 25200R   26071.14979148  .00012942  00000+0  89917-3 0  9996
2 65535  97.6033 142.2643 0000612 204.9787 155.1410 15.05663477 29509
STARLINK-35044          
1 65536U 25200S   26071.16914643 -.00006666  00000+0 -45817-3 0  9997
2 65536  97.6020 142.2386 0001040  79.5710 280.5634 15.05653466 29506
STARLINK-35136          
1 65537U 25200T   26071.18300403  .00004112  00000+0  28898-3 0  9995
2 65537  97.6023 142.2182 0001599  89.4373 270.7037 15.05659334 29416
STARLINK-35144          
1 65538U 25200U   26071.17747134  .00008928  00000+0  62207-3 0  9992
2 65538  97.6022 142.2267 0000326 176.2249 183.8981 15.05658712 29505
STARLINK-35110          
1 65539U 25200V   26071.20792736  .00004889  00000+0  34278-3 0  9994
2 65539  97.6036 142.3402 0001289 113.6608 246.4754 15.05656409 29512
STARLINK-35052          
1 65540U 25200W   26071.15810228  .00009855  00000+0  68643-3 0  9998
2 65540  97.6027 142.2536 0000194 251.9560 108.1646 15.05642041 29429
STARLINK-35087          
1 65541U 25200X   26071.16361803  .00002923  00000+0  20666-3 0  9992
2 65541  97.6011 142.2450 0000584 160.7497 199.3752 15.05654576 29502
STARLINK-35100          
1 65542U 25200Y   26071.19407525  .00003513  00000+0  24751-3 0  9993
2 65542  97.6028 142.2060 0000946 112.8711 247.2616 15.05654880 29507
STARLINK-35105          
1 65543U 25200Z   26071.15254611  .00008324  00000+0  58024-3 0  9991
2 65543  97.6029 142.2615 0000386 205.0963 155.0246 15.05663295 29502
