[{"OBJECT_NAME":"STARLINK-35063","OBJECT_ID":"2025-200J","EPOCH":"2026-03-12T04:51:26.112384","MEAN_MOTION":15.05641098,"ECCENTRICITY":0.00011804,"INCLINATION":97.6038,"RA_OF_ASC_NODE":142.3487,"ARG_OF_PERICENTER":73.4955,"MEAN_ANOMALY":286.6401,"EPHEMERIS_TYPE":0,"CLASSIFICATION_TYPE":"U","NORAD_CAT_ID":65528,"ELEMENT_SET_NO":999,"REV_AT_EPOCH":2951,"BSTAR":-0.00053539971,"MEAN_MOTION_DOT":-7.776e-5,"MEAN_MOTION_DDOT":0},{"OBJECT_NAME":"STARLINK-35077","OBJECT_ID":"2025-200K","EPOCH":"2026-03-12T04:19:32.138112","MEAN_MOTION":15.05654463,"ECCENTRICITY":0.00011168,"INCLINATION":97.6023,"RA_OF_ASC_NODE":142.222,"ARG_OF_PERICENTER":111.7425,"MEAN_ANOMALY":248.3921,"EPHEMERIS_TYPE":0,"CLASSIFICATION_TYPE":"U","NORAD_CAT_ID":65529,"ELEMENT_SET_NO":999,"REV_AT_EPOCH":2950,"BSTAR":0.00028541384,"MEAN_MOTION_DOT":4.06e-5,"MEAN_MOTION_DDOT":0},{"OBJECT_NAME":"STARLINK-35152","OBJECT_ID":"2025-200L","EPOCH":"2026-03-12T03:51:37.447776","MEAN_MOTION":15.05660577,"ECCENTRICITY":7.276e-5,"INCLINATION":97.6015,"RA_OF_ASC_NODE":142.2492,"ARG_OF_PERICENTER":102.0828,"MEAN_ANOMALY":258.048,"EPHEMERIS_TYPE":0,"CLASSIFICATION_TYPE":"U","NORAD_CAT_ID":65530,"ELEMENT_SET_NO":999,"REV_AT_EPOCH":2950,"BSTAR":0.00040201086,"MEAN_MOTION_DOT":5.746e-5,"MEAN_MOTION_DDOT":0},{"OBJECT_NAME":"STARLINK-35064","OBJECT_ID":"2025-200M","EPOCH":"2026-03-12T04:07:34.491936","MEAN_MOTION":15.05654765,"ECCENTRICITY":9.779e-5,"INCLINATION":97.6022,"RA_OF_ASC_NODE":142.234,"ARG_OF_PERICENTER":98.1159,"MEAN_ANOMALY":262.0178,"EPHEMERIS_TYPE":0,"CLASSIFICATION_TYPE":"U","NORAD_CAT_ID":65531,"ELEMENT_SET_NO":999,"REV_AT_EPOCH":2950,"BSTAR":0.000370949,"MEAN_MOTION_DOT":5.296e-5,"MEAN_MOTION_DDOT":0},{"OBJECT_NAME":"STARLINK-35170","OBJECT_ID":"2025-200N","EPOCH":"2026-03-12T05:03:24.308928","MEAN_MOTION":15.05655642,"ECCENTRICITY":9.699e-5,"INCLINATION":97.6045,"RA_OF_ASC_NODE":142.3381,"ARG_OF_PERICENTER":79.1546,"MEAN_ANOMALY":280.979,"EPHEMERIS_TYPE":0,"CLASSIFICATION_TYPE":"U","NORAD_CAT_ID":65532,"ELEMENT_SET_NO":999,"REV_AT_EPOCH":2951,"BSTAR":0.00050327934,"MEAN_MOTION_DOT":7.209e-5,"MEAN_MOTION_DDOT":0},{"OBJECT_NAME":"STARLINK-35172","OBJECT_ID":"2025-200P","EPOCH":"2026-03-12T04:31:28.692192","MEAN_MOTION":15.05635202,"ECCENTRICITY":7.315e-5,"INCLINATION":97.6023,"RA_OF_ASC_NODE":142.2105,"ARG_OF_PERICENTER":73.0614,"MEAN_ANOMALY":287.0693,"EPHEMERIS_TYPE":0,"CLASSIFICATION_TYPE":"U","NORAD_CAT_ID":65533,"ELEMENT_SET_NO":999,"REV_AT_EPOCH":2950,"BSTAR":-0.00053999858,"MEAN_MOTION_DOT":-7.841e-5,"MEAN_MOTION_DDOT":0},{"OBJECT_NAME":"STARLINK-35125","OBJECT_ID":"2025-200Q","EPOCH":"2026-03-12T04:43:27.466752","MEAN_MOTION":15.05654675,"ECCENTRICITY":0.0001848,"INCLINATION":97.6029,"RA_OF_ASC_NODE":142.2013,"ARG_OF_PERICENTER":85.962,"MEAN_ANOMALY":274.1818,"EPHEMERIS_TYPE":0,"CLASSIFICATION_TYPE":"U","NORAD_CAT_ID":65534,"ELEMENT_SET_NO":999,"REV_AT_EPOCH":2950,"BSTAR":0.00026282155,"MEAN_MOTION_DOT":3.734e-5,"MEAN_MOTION_DDOT":0},{"OBJECT_NAME":"STARLINK-35133","OBJECT_ID":"2025-200R","EPOCH":"2026-03-12T03:35:41.983872","MEAN_MOTION":15.05663477,"ECCENTRICITY":6.124e-5,"INCLINATION":97.6033,"RA_OF_ASC_NODE":142.2643,"ARG_OF_PERICENTER":204.9787,"MEAN_ANOMALY":155.141,"EPHEMERIS_TYPE":0,"CLASSIFICATION_TYPE":"U","NORAD_CAT_ID":65535,"ELEMENT_SET_NO":999,"REV_AT_EPOCH":2950,"BSTAR":0.00089916733,"MEAN_MOTION_DOT":0.00012942,"MEAN_MOTION_DDOT":0},{"OBJECT_NAME":"STARLINK-35044","OBJECT_ID":"2025-200S","EPOCH":"2026-03-12T04:03:34.251552","MEAN_MOTION":15.05653466,"ECCENTRICITY":0.00010403,"INCLINATION":97.602,"RA_OF_ASC_NODE":142.2386,"ARG_OF_PERICENTER":79.571,"MEAN_ANOMALY":280.5634,"EPHEMERIS_TYPE":0,"CLASSIFICATION_TYPE":"U","NORAD_CAT_ID":65536,"ELEMENT_SET_NO":999,"REV_AT_EPOCH":2950,"BSTAR":-0.00045816587,"MEAN_MOTION_DOT":-6.666e-5,"MEAN_MOTION_DDOT":0},{"OBJECT_NAME":"STARLINK-35136","OBJECT_ID":"2025-200T","EPOCH":"2026-03-12T04:23:31.548192","MEAN_MOTION":15.05659334,"ECCENTRICITY":0.00015995,"INCLINATION":97.6023,"RA_OF_ASC_NODE":142.2182,"ARG_OF_PERICENTER":89.4373,"MEAN_ANOMALY":270.7037,"EPHEMERIS_TYPE":0,"CLASSIFICATION_TYPE":"U","NORAD_CAT_ID":65537,"ELEMENT_SET_NO":999,"REV_AT_EPOCH":2941,"BSTAR":0.00028897756,"MEAN_MOTION_DOT":4.112e-5,"MEAN_MOTION_DDOT":0},{"OBJECT_NAME":"STARLINK-35144","OBJECT_ID":"2025-200U","EPOCH":"2026-03-12T04:15:33.523776","MEAN_MOTION":15.05658712,"ECCENTRICITY":3.262e-5,"INCLINATION":97.6022,"RA_OF_ASC_NODE":142.2267,"ARG_OF_PERICENTER":176.2249,"MEAN_ANOMALY":183.8981,"EPHEMERIS_TYPE":0,"CLASSIFICATION_TYPE":"U","NORAD_CAT_ID":65538,"ELEMENT_SET_NO":999,"REV_AT_EPOCH":2950,"BSTAR":0.00062206734,"MEAN_MOTION_DOT":8.928e-5,"MEAN_MOTION_DDOT":0},{"OBJECT_NAME":"STARLINK-35110","OBJECT_ID":"2025-200V","EPOCH":"2026-03-12T04:59:24.923904","MEAN_MOTION":15.05656409,"ECCENTRICITY":0.00012898,"INCLINATION":97.6036,"RA_OF_ASC_NODE":142.3402,"ARG_OF_PERICENTER":113.6608,"MEAN_ANOMALY":246.4754,"EPHEMERIS_TYPE":0,"CLASSIFICATION_TYPE":"U","NORAD_CAT_ID":65539,"ELEMENT_SET_NO":999,"REV_AT_EPOCH":2951,"BSTAR":0.00034278247,"MEAN_MOTION_DOT":4.889e-5,"MEAN_MOTION_DDOT":0},{"OBJECT_NAME":"STARLINK-35052","OBJECT_ID":"2025-200W","EPOCH":"2026-03-12T03:47:40.036992","MEAN_MOTION":15.05642041,"ECCENTRICITY":1.947e-5,"INCLINATION":97.6027,"RA_OF_ASC_NODE":142.2536,"ARG_OF_PERICENTER":251.956,"MEAN_ANOMALY":108.1646,"EPHEMERIS_TYPE":0,"CLASSIFICATION_TYPE":"U","NORAD_CAT_ID":65540,"ELEMENT_SET_NO":999,"REV_AT_EPOCH":2942,"BSTAR":0.0006864272,"MEAN_MOTION_DOT":9.855e-5,"MEAN_MOTION_DDOT":0},{"OBJECT_NAME":"STARLINK-35087","OBJECT_ID":"2025-200X","EPOCH":"2026-03-12T03:55:36.597792","MEAN_MOTION":15.05654576,"ECCENTRICITY":5.841e-5,"INCLINATION":97.6011,"RA_OF_ASC_NODE":142.245,"ARG_OF_PERICENTER":160.7497,"MEAN_ANOMALY":199.3752,"EPHEMERIS_TYPE":0,"CLASSIFICATION_TYPE":"U","NORAD_CAT_ID":65541,"ELEMENT_SET_NO":999,"REV_AT_EPOCH":2950,"BSTAR":0.00020665781,"MEAN_MOTION_DOT":2.923e-5,"MEAN_MOTION_DDOT":0},{"OBJECT_NAME":"STARLINK-35100","OBJECT_ID":"2025-200Y","EPOCH":"2026-03-12T04:39:28.101600","MEAN_MOTION":15.0565488,"ECCENTRICITY":9.467e-5,"INCLINATION":97.6028,"RA_OF_ASC_NODE":142.206,"ARG_OF_PERICENTER":112.8711,"MEAN_ANOMALY":247.2616,"EPHEMERIS_TYPE":0,"CLASSIFICATION_TYPE":"U","NORAD_CAT_ID":65542,"ELEMENT_SET_NO":999,"REV_AT_EPOCH":2950,"BSTAR":0.00024751073,"MEAN_MOTION_DOT":3.513e-5,"MEAN_MOTION_DDOT":0},{"OBJECT_NAME":"STARLINK-35105","OBJECT_ID":"2025-200Z","EPOCH":"2026-03-12T03:39:39.983904","MEAN_MOTION":15.05663295,"ECCENTRICITY":3.861e-5,"INCLINATION":97.6029,"RA_OF_ASC_NODE":142.2615,"ARG_OF_PERICENTER":205.0963,"MEAN_ANOMALY":155.0246,"EPHEMERIS_TYPE":0,"CLASSIFICATION_TYPE":"U","NORAD_CAT_ID":65543,"ELEMENT_SET_NO":999,"REV_AT_EPOCH":2950,"BSTAR":0.00058024182,"MEAN_MOTION_DOT":8.324e-5,"MEAN_MOTION_DDOT":0}]
